XRISM                   
1 57800U 23137A   23279.09434325  .00007544  00000+0  61517-3 0  9991
2 57800  31.0025 192.3491 0010251 206.4851 153.5261 14.98114156  4363
